*******************************************************************************
Ephemeris / WWW_USER Mon Jul 15 19:27:57 2024 Pasadena, USA      / Horizons    
*******************************************************************************
Target body name: (2018 RA1)                      {source: JPL#6}
Center body name: Earth (399)                     {source: DE441}
Center-site name: Gemini South Obs., Cerro Pachon
*******************************************************************************
Start time      : A.D. 2018-Oct-23 23:07:00.0000 UT      
Stop  time      : A.D. 2018-Oct-24 09:46:00.0000 UT      
Step-size       : 1 minutes
*******************************************************************************
Target pole/equ : undefined
Target radii    : undefined                                                    
Center geodetic : 289.2634, -30.2406227, 2.71233  {E-lon(deg),Lat(deg),Alt(km)}
Center cylindric: 289.2634,5517.21435,-3194.81213 {E-lon(deg),Dxy(km),Dz(km)}
Center pole/equ : ITRF93                          {East-longitude positive}
Center radii    : 6378.137, 6378.137, 6356.752 km {Equator_a, b, pole_c}       
Target primary  : Sun
Vis. interferer : MOON (R_eq= 1737.400) km        {source: DE441}
Rel. light bend : Sun                             {source: DE441}
Rel. lght bnd GM: 1.3271E+11 km^3/s^2                                          
Small-body perts: Yes                             {source: SB441-N16}
Atmos refraction: NO (AIRLESS)
RA format       : HMS
Time format     : CAL 
Calendar mode   : Mixed Julian/Gregorian
RTS-only print  : NO       
EOP file        : eop.240715.p241008                                           
EOP coverage    : DATA-BASED 1962-JAN-20 TO 2024-JUL-15. PREDICTS-> 2024-OCT-07
Units conversion: 1 au= 149597870.700 km, c= 299792.458 km/s, 1 day= 86400.0 s 
Table cut-offs 1: Elevation (-90.0deg=NO ),Airmass (>38.000=NO), Daylight (YES)
Table cut-offs 2: Solar elongation (  0.0,180.0=NO ),Local Hour Angle( 0.0=NO )
Table cut-offs 3: RA/DEC angular rate (     0.0=NO )                           
*******************************************************************************
Initial IAU76/J2000 heliocentric ecliptic osculating elements (au, days, deg.):
  EPOCH=  2458369.5 ! 2018-Sep-08.00 (TDB)         Residual RMS= .21275        
   EC= .3232115344739424   QR= .7703453101153647   TP= 2458436.6763547547      
   OM= 166.2054176892707   W=  269.7217787981747   IN= 8.763099478405824       
  Equivalent ICRF heliocentric cartesian coordinates (au, au/d):
   X= 9.899686155013647E-01  Y=-2.468208982240139E-01  Z=-1.030323866474361E-01
  VX=-9.411283005844916E-04 VY= 1.717513364149167E-02 VZ= 4.613440841260365E-03
Asteroid physical parameters (km, seconds, rotational period in hours):        
   GM= n.a.                RAD= n.a.               ROTPER= n.a.                
   H= 26.4                 G= .150                 B-V= n.a.                   
                           ALBEDO= n.a.            STYP= n.a.                  
*******************************************************************************
 Date__(UT)__HR:MN     R.A._________(ICRF)_________DEC
******************************************************
$$SOE
 2018-Oct-24 05:16  m  11 05 47.181623 -16 58 25.75381
 2018-Oct-24 05:17  m  11 05 47.256571 -16 58 25.47304
 2018-Oct-24 05:18  m  11 05 47.331491 -16 58 25.19237
 2018-Oct-24 05:19  m  11 05 47.406383 -16 58 24.91180
 2018-Oct-24 05:20  m  11 05 47.481247 -16 58 24.63131
 2018-Oct-24 05:21  m  11 05 47.556082 -16 58 24.35093
 2018-Oct-24 05:22  m  11 05 47.630889 -16 58 24.07063
 2018-Oct-24 05:23  m  11 05 47.705668 -16 58 23.79043
 2018-Oct-24 05:24  m  11 05 47.780418 -16 58 23.51033
 2018-Oct-24 05:25  m  11 05 47.855139 -16 58 23.23031
 2018-Oct-24 05:26  m  11 05 47.929831 -16 58 22.95039
 2018-Oct-24 05:27  m  11 05 48.004495 -16 58 22.67055
 2018-Oct-24 05:28  m  11 05 48.079130 -16 58 22.39081
 2018-Oct-24 05:29  m  11 05 48.153735 -16 58 22.11116
 2018-Oct-24 05:30  m  11 05 48.228312 -16 58 21.83160
 2018-Oct-24 05:31  m  11 05 48.302859 -16 58 21.55212
 2018-Oct-24 05:32  m  11 05 48.377378 -16 58 21.27274
 2018-Oct-24 05:33  m  11 05 48.451866 -16 58 20.99344
 2018-Oct-24 05:34  m  11 05 48.526326 -16 58 20.71423
 2018-Oct-24 05:35  m  11 05 48.600756 -16 58 20.43510
 2018-Oct-24 05:36  m  11 05 48.675156 -16 58 20.15606
 2018-Oct-24 05:37  m  11 05 48.749527 -16 58 19.87711
 2018-Oct-24 05:38  m  11 05 48.823868 -16 58 19.59824
 2018-Oct-24 05:39  m  11 05 48.898179 -16 58 19.31945
 2018-Oct-24 05:40  m  11 05 48.972460 -16 58 19.04075
 2018-Oct-24 05:41  m  11 05 49.046712 -16 58 18.76213
 2018-Oct-24 05:42  m  11 05 49.120933 -16 58 18.48360
 2018-Oct-24 05:43  m  11 05 49.195124 -16 58 18.20514
 2018-Oct-24 05:44  m  11 05 49.269285 -16 58 17.92677
 2018-Oct-24 05:45  m  11 05 49.343416 -16 58 17.64848
 2018-Oct-24 05:46  m  11 05 49.417516 -16 58 17.37027
 2018-Oct-24 05:47  m  11 05 49.491586 -16 58 17.09213
 2018-Oct-24 05:48  m  11 05 49.565625 -16 58 16.81408
 2018-Oct-24 05:49  m  11 05 49.639634 -16 58 16.53610
 2018-Oct-24 05:50  m  11 05 49.713612 -16 58 16.25821
 2018-Oct-24 05:51  m  11 05 49.787560 -16 58 15.98038
 2018-Oct-24 05:52  m  11 05 49.861477 -16 58 15.70264
 2018-Oct-24 05:53  m  11 05 49.935362 -16 58 15.42497
 2018-Oct-24 05:54  m  11 05 50.009217 -16 58 15.14738
 2018-Oct-24 05:55  m  11 05 50.083041 -16 58 14.86986
 2018-Oct-24 05:56  m  11 05 50.156834 -16 58 14.59242
 2018-Oct-24 05:57  m  11 05 50.230596 -16 58 14.31504
 2018-Oct-24 05:58  m  11 05 50.304327 -16 58 14.03775
 2018-Oct-24 05:59  m  11 05 50.378026 -16 58 13.76052
 2018-Oct-24 06:00  m  11 05 50.451694 -16 58 13.48337
 2018-Oct-24 06:01  m  11 05 50.525330 -16 58 13.20628
 2018-Oct-24 06:02  m  11 05 50.598936 -16 58 12.92927
 2018-Oct-24 06:03  m  11 05 50.672509 -16 58 12.65233
 2018-Oct-24 06:04  m  11 05 50.746051 -16 58 12.37545
 2018-Oct-24 06:05  m  11 05 50.819562 -16 58 12.09865
 2018-Oct-24 06:06  m  11 05 50.893040 -16 58 11.82191
 2018-Oct-24 06:07  m  11 05 50.966487 -16 58 11.54524
 2018-Oct-24 06:08  m  11 05 51.039903 -16 58 11.26864
 2018-Oct-24 06:09  m  11 05 51.113286 -16 58 10.99210
 2018-Oct-24 06:10  m  11 05 51.186637 -16 58 10.71563
 2018-Oct-24 06:11  m  11 05 51.259956 -16 58 10.43923
 2018-Oct-24 06:12  m  11 05 51.333244 -16 58 10.16288
 2018-Oct-24 06:13  m  11 05 51.406499 -16 58 09.88661
 2018-Oct-24 06:14  m  11 05 51.479722 -16 58 09.61039
 2018-Oct-24 06:15  m  11 05 51.552912 -16 58 09.33424
 2018-Oct-24 06:16  m  11 05 51.626071 -16 58 09.05815
 2018-Oct-24 06:17  m  11 05 51.699197 -16 58 08.78212
 2018-Oct-24 06:18  m  11 05 51.772291 -16 58 08.50615
 2018-Oct-24 06:19  m  11 05 51.845352 -16 58 08.23024
 2018-Oct-24 06:20  m  11 05 51.918381 -16 58 07.95439
 2018-Oct-24 06:21  m  11 05 51.991377 -16 58 07.67860
 2018-Oct-24 06:22  m  11 05 52.064340 -16 58 07.40286
 2018-Oct-24 06:23  m  11 05 52.137271 -16 58 07.12719
 2018-Oct-24 06:24  m  11 05 52.210170 -16 58 06.85157
 2018-Oct-24 06:25  m  11 05 52.283035 -16 58 06.57601
 2018-Oct-24 06:26  m  11 05 52.355868 -16 58 06.30050
 2018-Oct-24 06:27  m  11 05 52.428667 -16 58 06.02505
 2018-Oct-24 06:28  m  11 05 52.501434 -16 58 05.74965
 2018-Oct-24 06:29  m  11 05 52.574168 -16 58 05.47430
 2018-Oct-24 06:30  m  11 05 52.646869 -16 58 05.19901
 2018-Oct-24 06:31  m  11 05 52.719537 -16 58 04.92377
 2018-Oct-24 06:32  m  11 05 52.792172 -16 58 04.64858
 2018-Oct-24 06:33  m  11 05 52.864774 -16 58 04.37345
 2018-Oct-24 06:34  m  11 05 52.937342 -16 58 04.09836
 2018-Oct-24 06:35  m  11 05 53.009878 -16 58 03.82332
 2018-Oct-24 06:36  m  11 05 53.082380 -16 58 03.54834
 2018-Oct-24 06:37  m  11 05 53.154849 -16 58 03.27340
 2018-Oct-24 06:38  m  11 05 53.227284 -16 58 02.99850
 2018-Oct-24 06:39  m  11 05 53.299686 -16 58 02.72366
 2018-Oct-24 06:40  m  11 05 53.372055 -16 58 02.44886
 2018-Oct-24 06:41  m  11 05 53.444390 -16 58 02.17411
 2018-Oct-24 06:42  m  11 05 53.516692 -16 58 01.89941
 2018-Oct-24 06:43  m  11 05 53.588960 -16 58 01.62474
 2018-Oct-24 06:44  m  11 05 53.661195 -16 58 01.35013
 2018-Oct-24 06:45  m  11 05 53.733396 -16 58 01.07555
 2018-Oct-24 06:46  m  11 05 53.805563 -16 58 00.80102
 2018-Oct-24 06:47  r  11 05 53.877697 -16 58 00.52653
 2018-Oct-24 06:48  m  11 05 53.949797 -16 58 00.25208
 2018-Oct-24 06:49  m  11 05 54.021863 -16 57 59.97767
 2018-Oct-24 06:50  m  11 05 54.093895 -16 57 59.70331
 2018-Oct-24 06:51  m  11 05 54.165894 -16 57 59.42898
 2018-Oct-24 06:52  m  11 05 54.237859 -16 57 59.15469
 2018-Oct-24 06:53  m  11 05 54.309790 -16 57 58.88044
 2018-Oct-24 06:54  m  11 05 54.381687 -16 57 58.60622
 2018-Oct-24 06:55  m  11 05 54.453550 -16 57 58.33204
 2018-Oct-24 06:56  m  11 05 54.525379 -16 57 58.05790
 2018-Oct-24 06:57  m  11 05 54.597174 -16 57 57.78380
 2018-Oct-24 06:58  m  11 05 54.668936 -16 57 57.50973
 2018-Oct-24 06:59  m  11 05 54.740663 -16 57 57.23569
 2018-Oct-24 07:00  m  11 05 54.812356 -16 57 56.96169
 2018-Oct-24 07:01  m  11 05 54.884015 -16 57 56.68772
 2018-Oct-24 07:02  m  11 05 54.955640 -16 57 56.41378
 2018-Oct-24 07:03  m  11 05 55.027230 -16 57 56.13987
 2018-Oct-24 07:04  m  11 05 55.098787 -16 57 55.86600
 2018-Oct-24 07:05  m  11 05 55.170309 -16 57 55.59215
 2018-Oct-24 07:06  m  11 05 55.241798 -16 57 55.31834
 2018-Oct-24 07:07  m  11 05 55.313251 -16 57 55.04455
 2018-Oct-24 07:08  m  11 05 55.384671 -16 57 54.77079
 2018-Oct-24 07:09  m  11 05 55.456057 -16 57 54.49706
 2018-Oct-24 07:10  m  11 05 55.527408 -16 57 54.22335
 2018-Oct-24 07:11  m  11 05 55.598725 -16 57 53.94968
 2018-Oct-24 07:12  m  11 05 55.670007 -16 57 53.67602
 2018-Oct-24 07:13  m  11 05 55.741255 -16 57 53.40240
 2018-Oct-24 07:14  m  11 05 55.812469 -16 57 53.12879
 2018-Oct-24 07:15  m  11 05 55.883648 -16 57 52.85521
 2018-Oct-24 07:16  m  11 05 55.954794 -16 57 52.58166
 2018-Oct-24 07:17  m  11 05 56.025904 -16 57 52.30812
 2018-Oct-24 07:18  m  11 05 56.096980 -16 57 52.03461
